{"type": "FeatureCollection", "features": [ {"type": "Feature", "properties": {"norad_id": 66615, "name": "STARLINK-35988", "group": "last-30-days", "lat": 36.39258066810869, "lon": -96.95120263162461, "alt_km": 438.352662206913, "timestamp": "2025-12-22T15:43:47.683605+00:00", "meta": {"OBJECT_NAME": "STARLINK-35988", "OBJECT_ID": "2025-270AD", "EPOCH": "2025-12-22T02:46:02.178336", "MEAN_MOTION": 15.40720098, "ECCENTRICITY": 4.619e-05, "INCLINATION": 42.9959, "RA_OF_ASC_NODE": 138.4488, "ARG_OF_PERICENTER": 300.2363, "MEAN_ANOMALY": 59.8448, "EPHEMERIS_TYPE": 0, "CLASSIFICATION_TYPE": "U", "NORAD_CAT_ID": 66615, "ELEMENT_SET_NO": 999, "REV_AT_EPOCH": 563, "BSTAR": 0.0010764601, "MEAN_MOTION_DOT": 0.00044958, "MEAN_MOTION_DDOT": 0}, "tle": {"line1": "1 66615U 25270AD  25356.11530299  .00044958  00000+0  10765-2 0  9991", "line2": "2 66615  42.9959 138.4488 0000461 300.2363  59.8448 15.40720098  5636"}}, "geometry": {"type": "Point", "coordinates": [-96.95120263162461, 36.39258066810869]}}, {"type": "Feature", "properties": {"norad_id": 66616, "name": "STARLINK-35391", "group": "last-30-days", "lat": -25.295984589141696, "lon": -14.429748558212125, "alt_km": 446.0955712680079, "timestamp": "2025-12-22T15:43:47.683615+00:00", "meta": {"OBJECT_NAME": "STARLINK-35391", "OBJECT_ID": "2025-270AE", "EPOCH": "2025-12-22T00:00:00.998784", "MEAN_MOTION": 15.40663019, "ECCENTRICITY": 0.0001246, "INCLINATION": 43.0002, "RA_OF_ASC_NODE": 138.8723, "ARG_OF_PERICENTER": 281.4949, "MEAN_ANOMALY": 257.7879, "EPHEMERIS_TYPE": 0, "CLASSIFICATION_TYPE": "U", "NORAD_CAT_ID": 66616, "ELEMENT_SET_NO": 999, "REV_AT_EPOCH": 599, "BSTAR": 0.00066448, "MEAN_MOTION_DOT": 0.00027519, "MEAN_MOTION_DDOT": 0}, "tle": {"line1": "1 66616U 25270AE  25356.00001156  .00027519  00000+0  66448-3 0  9999", "line2": "2 66616  43.0002 138.8723 0001246 281.4949 257.7879 15.40663019  5991"}}, "geometry": {"type": "Point", "coordinates": [-14.429748558212125, -25.295984589141696]}}, {"type": "Feature", "properties": {"norad_id": 66617, "name": "STARLINK-35940", "group": "last-30-days", "lat": 50.394425890748906, "lon": -154.67114874836628, "alt_km": 439.1917416911556, "timestamp": "2025-12-22T15:43:47.683626+00:00", "meta": {"OBJECT_NAME": "STARLINK-35940", "OBJECT_ID": "2025-271A", "EPOCH": "2025-12-22T02:56:44.032704", "MEAN_MOTION": 15.39674784, "ECCENTRICITY": 0.00015055, "INCLINATION": 53.1598, "RA_OF_ASC_NODE": 142.8709, "ARG_OF_PERICENTER": 86.5375, "MEAN_ANOMALY": 273.5802, "EPHEMERIS_TYPE": 0, "CLASSIFICATION_TYPE": "U", "NORAD_CAT_ID": 66617, "ELEMENT_SET_NO": 999, "REV_AT_EPOCH": 565, "BSTAR": 0.00089646154, "MEAN_MOTION_DOT": 0.00035691, "MEAN_MOTION_DDOT": 0}, "tle": {"line1": "1 66617U 25271A   25356.12273186  .00035691  00000+0  89646-3 0  9993", "line2": "2 66617  53.1598 142.8709 0001505  86.5375 273.5802 15.39674784  5652"}}, "geometry": {"type": "Point", "coordinates": [-154.67114874836628, 50.394425890748906]}}, {"type": "Feature", "properties": {"norad_id": 66618, "name": "STARLINK-35970", "group": "last-30-days", "lat": -2.1082898160430146, "lon": 138.2091755733734, "alt_km": 430.66883766943465, "timestamp": "2025-12-22T15:43:47.683638+00:00", "meta": {"OBJECT_NAME": "STARLINK-35970", "OBJECT_ID": "2025-271B", "EPOCH": "2025-12-22T06:00:02.000160", "MEAN_MOTION": 15.45484246, "ECCENTRICITY": 0.00012262, "INCLINATION": 53.1607, "RA_OF_ASC_NODE": 141.7185, "ARG_OF_PERICENTER": 69.1493, "MEAN_ANOMALY": 191.5111, "EPHEMERIS_TYPE": 0, "CLASSIFICATION_TYPE": "U", "NORAD_CAT_ID": 66618, "ELEMENT_SET_NO": 999, "REV_AT_EPOCH": 577, "BSTAR": 0.0019080456, "MEAN_MOTION_DOT": 0.00093624, "MEAN_MOTION_DDOT": 0}, "tle": {"line1": "1 66618U 25271B   25356.25002315  .00093624  00000+0  19080-2 0  9996", "line2": "2 66618  53.1607 141.7185 0001226  69.1493 191.5111 15.45484246  5772"}}, "geometry": {"type": "Point", "coordinates": [138.2091755733734, -2.1082898160430146]}}, {"type": "Feature", "properties": {"norad_id": 66619, "name": "STARLINK-35951", "group": "last-30-days", "lat": -41.10340957126996, "lon": 99.05019249934534, "alt_km": 447.0758199970287, "timestamp": "2025-12-22T15:43:47.683649+00:00", "meta": {"OBJECT_NAME": "STARLINK-35951", "OBJECT_ID": "2025-271C", "EPOCH": "2025-12-22T06:00:02.000160", "MEAN_MOTION": 15.43171169, "ECCENTRICITY": 0.00014488, "INCLINATION": 53.1607, "RA_OF_ASC_NODE": 141.8186, "ARG_OF_PERICENTER": 84.3287, "MEAN_ANOMALY": 128.4106, "EPHEMERIS_TYPE": 0, "CLASSIFICATION_TYPE": "U", "NORAD_CAT_ID": 66619, "ELEMENT_SET_NO": 999, "REV_AT_EPOCH": 577, "BSTAR": -0.049839114, "MEAN_MOTION_DOT": -0.02000452, "MEAN_MOTION_DDOT": 0}, "tle": {"line1": "1 66619U 25271C   25356.25002315 -.02000452  00000+0 -49839-1 0  9992", "line2": "2 66619  53.1607 141.8186 0001448  84.3287 128.4106 15.43171169  5779"}}, "geometry": {"type": "Point", "coordinates": [99.05019249934534, -41.10340957126996]}}, {"type": "Feature", "properties": {"norad_id": 66620, "name": "STARLINK-35936", "group": "last-30-days", "lat": -50.56330097778498, "lon": 25.712742232855174, "alt_km": 451.3487087887979, "timestamp": "2025-12-22T15:43:47.683659+00:00", "meta": {"OBJECT_NAME": "STARLINK-35936", "OBJECT_ID": "2025-271D", "EPOCH": "2025-12-21T23:02:57.405696", "MEAN_MOTION": 15.39672113, "ECCENTRICITY": 0.00018507, "INCLINATION": 53.1599, "RA_OF_ASC_NODE": 143.2712, "ARG_OF_PERICENTER": 170.8964, "MEAN_ANOMALY": 189.2075, "EPHEMERIS_TYPE": 0, "CLASSIFICATION_TYPE": "U", "NORAD_CAT_ID": 66620, "ELEMENT_SET_NO": 999, "REV_AT_EPOCH": 563, "BSTAR": 0.0017924362, "MEAN_MOTION_DOT": 0.00072102, "MEAN_MOTION_DDOT": 0}, "tle": {"line1": "1 66620U 25271D   25355.96038664  .00072102  00000+0  17924-2 0  9995", "line2": "2 66620  53.1599 143.2712 0001850 170.8964 189.2075 15.39672113  5637"}}, "geometry": {"type": "Point", "coordinates": [25.712742232855174, -50.56330097778498]}}, {"type": "Feature", "properties": {"norad_id": 66621, "name": "STARLINK-35847", "group": "last-30-days", "lat": 1.6573659278273223, "lon": 141.02209290401234, "alt_km": 431.190851807095, "timestamp": "2025-12-22T15:43:47.683669+00:00", "meta": {"OBJECT_NAME": "STARLINK-35847", "OBJECT_ID": "2025-271E", "EPOCH": "2025-12-21T07:08:05.401536", "MEAN_MOTION": 15.45669226, "ECCENTRICITY": 0.00038432, "INCLINATION": 53.1599, "RA_OF_ASC_NODE": 146.2404, "ARG_OF_PERICENTER": 131.8749, "MEAN_ANOMALY": 228.2587, "EPHEMERIS_TYPE": 0, "CLASSIFICATION_TYPE": "U", "NORAD_CAT_ID": 66621, "ELEMENT_SET_NO": 999, "REV_AT_EPOCH": 553, "BSTAR": 0.0018441864, "MEAN_MOTION_DOT": 0.00091038, "MEAN_MOTION_DDOT": 0}, "tle": {"line1": "1 66621U 25271E   25355.29728474  .00091038  00000+0  18442-2 0  9992", "line2": "2 66621  53.1599 146.2404 0003843 131.8749 228.2587 15.45669226  5530"}}, "geometry": {"type": "Point", "coordinates": [141.02209290401234, 1.6573659278273223]}}, {"type": "Feature", "properties": {"norad_id": 66622, "name": "STARLINK-35950", "group": "last-30-days", "lat": 2.112853434070663, "lon": -41.429267907970015, "alt_km": 448.2995860771025, "timestamp": "2025-12-22T15:43:47.683681+00:00", "meta": {"OBJECT_NAME": "STARLINK-35950", "OBJECT_ID": "2025-271F", "EPOCH": "2025-12-22T00:00:00.998784", "MEAN_MOTION": 15.39697473, "ECCENTRICITY": 0.0001039, "INCLINATION": 53.1594, "RA_OF_ASC_NODE": 143.2448, "ARG_OF_PERICENTER": 74.0942, "MEAN_ANOMALY": 68.4893, "EPHEMERIS_TYPE": 0, "CLASSIFICATION_TYPE": "U", "NORAD_CAT_ID": 66622, "ELEMENT_SET_NO": 999, "REV_AT_EPOCH": 573, "BSTAR": -0.0035089, "MEAN_MOTION_DOT": -0.00138582, "MEAN_MOTION_DDOT": 0}, "tle": {"line1": "1 66622U 25271F   25356.00001156 -.00138582  00000+0 -35089-2 0  9998", "line2": "2 66622  53.1594 143.2448 0001039  74.0942  68.4893 15.39697473  5733"}}, "geometry": {"type": "Point", "coordinates": [-41.429267907970015, 2.112853434070663]}}, {"type": "Feature", "properties": {"norad_id": 66623, "name": "STARLINK-35920", "group": "last-30-days", "lat": 40.38310659878982, "lon": -79.3601560458016, "alt_km": 441.30181567383624, "timestamp": "2025-12-22T15:43:47.683691+00:00", "meta": {"OBJECT_NAME": "STARLINK-35920", "OBJECT_ID": "2025-271G", "EPOCH": "2025-12-22T02:43:21.133056", "MEAN_MOTION": 15.39651421, "ECCENTRICITY": 6.899e-05, "INCLINATION": 53.1619, "RA_OF_ASC_NODE": 142.81, "ARG_OF_PERICENTER": 95.3081, "MEAN_ANOMALY": 264.8003, "EPHEMERIS_TYPE": 0, "CLASSIFICATION_TYPE": "U", "NORAD_CAT_ID": 66623, "ELEMENT_SET_NO": 999, "REV_AT_EPOCH": 565, "BSTAR": 0.0010571474, "MEAN_MOTION_DOT": 0.00042163, "MEAN_MOTION_DDOT": 0}, "tle": {"line1": "1 66623U 25271G   25356.11343904  .00042163  00000+0  10571-2 0  9997", "line2": "2 66623  53.1619 142.8100 0000689  95.3081 264.8003 15.39651421  5651"}}, "geometry": {"type": "Point", "coordinates": [-79.3601560458016, 40.38310659878982]}}, {"type": "Feature", "properties": {"norad_id": 66624, "name": "STARLINK-35927", "group": "last-30-days", "lat": -33.84404917582527, "lon": 109.6974955193645, "alt_km": 433.44412763199944, "timestamp": "2025-12-22T15:43:47.683701+00:00", "meta": {"OBJECT_NAME": "STARLINK-35927", "OBJECT_ID": "2025-271H", "EPOCH": "2025-12-21T19:44:45.799584", "MEAN_MOTION": 15.45590603, "ECCENTRICITY": 0.0001212, "INCLINATION": 53.1602, "RA_OF_ASC_NODE": 143.8385, "ARG_OF_PERICENTER": 54.0655, "MEAN_ANOMALY": 306.0465, "EPHEMERIS_TYPE": 0, "CLASSIFICATION_TYPE": "U", "NORAD_CAT_ID": 66624, "ELEMENT_SET_NO": 999, "REV_AT_EPOCH": 561, "BSTAR": 0.0017129448, "MEAN_MOTION_DOT": 0.00084211, "MEAN_MOTION_DDOT": 0}, "tle": {"line1": "1 66624U 25271H   25355.82275231  .00084211  00000+0  17129-2 0  9998", "line2": "2 66624  53.1602 143.8385 0001212  54.0655 306.0465 15.45590603  5610"}}, "geometry": {"type": "Point", "coordinates": [109.6974955193645, -33.84404917582527]}}]}